GLOBALSTAR M069         
1 31573U 07020C   26166.54631208 -.00000049  00000+0  39968-3 0  9999
2 31573  52.0029 256.7716 0002373 144.6131 228.7040 12.23471107878608
GLOBALSTAR M072         
1 31574U 07020D   26166.96425488 -.00000107  00000+0 -31049-3 0  9995
2 31574  51.9923 103.5007 0001413 329.1465 106.7237 11.91658400874837
GLOBALSTAR M066         
1 32265U 07048C   26166.94411660 -.00000149  00000+0 -46481-3 0  9990
2 32265  51.9603  61.4807 0005471  41.3113  43.9039 12.30387703860073
GLOBALSTAR M079         
1 37188U 10054A   26166.57694462 -.00000120  00000+0 -89834-4 0  9991
2 37188  52.0033 113.5714 0000682  20.0481 151.9399 12.62266070722342
GLOBALSTAR M074         
1 37189U 10054B   26166.60301410 -.00000125  00000+0 -11669-3 0  9999
2 37189  52.0006 112.7569 0000514  49.9713 120.7592 12.62268395722952
GLOBALSTAR M076         
1 37190U 10054C   26166.11954987 -.00000112  00000+0 -45936-4 0  9991
2 37190  52.0024 114.4316 0000686  39.8014 333.0406 12.62261787722619
GLOBALSTAR M077         
1 37191U 10054D   26166.77870520 -.00000072  00000+0  10598-3 0  9993
2 37191  51.9920 182.8711 0002756 170.0117   0.7061 11.67547790720970
GLOBALSTAR M075         
1 37192U 10054E   26166.72175389 -.00000119  00000+0 -83115-4 0  9999
2 37192  51.9921 154.6545 0000129  18.6577 151.8901 12.62267401721755
GLOBALSTAR M073         
1 37193U 10054F   26167.00426021 -.00000103  00000+0  39923-5 0  9995
2 37193  52.0070  67.8932 0000907  45.3174 328.1165 12.62262106723785
GLOBALSTAR M083         
1 37739U 11033A   26166.85868720 -.00000094  00000+0  54167-4 0  9992
2 37739  51.9878  16.5671 0000918  65.1205 307.9487 12.62263032692789
GLOBALSTAR M088         
1 37740U 11033B   26166.53069949 -.00000089  00000+0  81592-4 0  9991
2 37740  52.0221 283.9914 0000732 124.3899 315.8519 12.62268684688288
GLOBALSTAR M091         
1 37741U 11033C   26166.95959926 -.00000077  00000+0  14814-3 0  9990
2 37741  51.9992 245.6536 0000326 151.6671  19.5038 12.62263889689127
GLOBALSTAR M085         
1 37742U 11033D   26166.86715931 -.00000087  00000+0  91468-4 0  9999
2 37742  52.0102 197.2251 0000110 273.2559 257.7377 12.62264142689626
GLOBALSTAR M081         
1 37743U 11033E   26166.40346226 -.00000076  00000+0  15610-3 0  9999
2 37743  51.9936 201.0749 0000130 112.9478 349.5413 12.62265042689718
GLOBALSTAR M089         
1 37744U 11033F   26166.69548368 -.00000113  00000+0 -52062-4 0  9998
2 37744  51.9905 154.3436 0000351  87.1563  83.8312 12.62267204690597
GLOBALSTAR M084         
1 38040U 11080A   26166.91172302 -.00000096  00000+0  40987-4 0  9998
2 38040  52.0026  21.1651 0001078  83.0171 291.0132 12.62267495668602
GLOBALSTAR M080         
1 38041U 11080B   26166.88276284 -.00000089  00000+0  82689-4 0  9996
2 38041  52.0080  22.9714 0000371  69.8191 302.5829 12.62269374668723
GLOBALSTAR M082         
1 38042U 11080C   26166.67576736 -.00000098  00000+0  30053-4 0  9997
2 38042  52.0102 339.1022 0000543  95.0224 346.3713 12.62263550669407
GLOBALSTAR M092         
1 38043U 11080D   26166.88620049 -.00000100  00000+0  23080-4 0  9994
2 38043  52.0094  68.8579 0000677  60.9419  16.1565 12.62266975667887
GLOBALSTAR M090         
1 38044U 11080E   26166.76653315 -.00000099  00000+0  27357-4 0  9992
2 38044  52.0143 332.7812 0000798  89.9015 283.1384 12.62269067669537
GLOBALSTAR M086         
1 38045U 11080F   26166.70922677 -.00000098  00000+0  33916-4 0  9994
2 38045  51.9915 332.8879 0001671  65.4592 307.9303 12.62286663669477
GLOBALSTAR M097         
1 39072U 13005A   26166.89591836 -.00000097  00000+0  38227-4 0  9992
2 39072  52.0047 247.2680 0000306 128.1118 231.9776 12.62247234616743
GLOBALSTAR M093         
1 39073U 13005B   26166.47323207 -.00000074  00000+0  16734-3 0  9995
2 39073  52.0099 241.9004 0000205  97.6550 262.4340 12.62265894616647
GLOBALSTAR M094         
1 39074U 13005C   26166.71068386 -.00000121  00000+0 -98152-4 0  9996
2 39074  51.9928 155.2945 0000371 357.4535   2.6329 12.62268597618288
GLOBALSTAR M096         
1 39075U 13005D   26166.80334234 -.00000088  00000+0  87981-4 0  9994
2 39075  52.0052 203.8140 0000042 234.2185 125.8678 12.62265591617212
GLOBALSTAR M078         
1 39076U 13005E   26166.61798296 -.00000181  00000+0 -43137-3 0  9995
2 39076  51.9887 288.3892 0000523 221.6190 138.4637 12.62257692615811
GLOBALSTAR M095         
1 39077U 13005F   26166.64473646 -.00000090  00000+0  79449-4 0  9992
2 39077  52.0093 285.9101 0000259 130.1745 229.9145 12.62263407615670
GLOBALSTAR M087         
1 52888U 22064A   26166.97471883 -.00000098  00000+0  30880-4 0  9993
2 52888  52.0007  66.1437 0000736  36.3196 323.7721 12.62269011190980
